#aV2021  1 25  0  0  0.00000000     288 DD+AD WGS84 FIT  NGA
## 2142  86400.00000000   300.00000000 59239 0.0000000000000
+   32     1  2  3  4  5  6  7  8  9 10 11 12 13 14 15 16 17
+         18 19 20 21 22 23 24 25 26 27 28 29 30 31 32  0  0
+          0  0  0  0  0  0  0  0  0  0  0  0  0  0  0  0  0
+          0  0  0  0  0  0  0  0  0  0  0  0  0  0  0  0  0
+          0  0  0  0  0  0  0  0  0  0  0  0  0  0  0  0  0
++         2  2  2  2  2  2  2  2  2  2  2  2  2  2  2  2  2
++         2  2  2  2  2  2  2  2  2  2  2  2  2  2  2  0  0
++         0  0  0  0  0  0  0  0  0  0  0  0  0  0  0  0  0
++         0  0  0  0  0  0  0  0  0  0  0  0  0  0  0  0  0
++         0  0  0  0  0  0  0  0  0  0  0  0  0  0  0  0  0
%c cc cc ccc ccc cccc cccc cccc cccc ccccc ccccc ccccc ccccc
%c cc cc ccc ccc cccc cccc cccc cccc ccccc ccccc ccccc ccccc
%f  0.0000000  0.000000000  0.00000000000  0.000000000000000
%f  0.0000000  0.000000000  0.00000000000  0.000000000000000
%i    0    0    0    0      0      0      0      0         0
%i    0    0    0    0      0      0      0      0         0
/*      NGA, ST. LOUIS,MO.                                  
/*   EPHEMERIS COMPUTED FROM 2 DAYS OF DATA                 
/*   EPOCHA v5 SMOOTHER                                     
/*   G2139 IERS2010 SATAF SATAPC                            
*  2021  1 25 23  5  0.00000000
P  1  14244.419897 -21729.352525   4311.461200    773.736987                    
V  1   -501.601305   6270.145360  31833.102409     -0.069392                    
P  2 -16416.518858   3370.473870 -19950.312242   -569.968634                    
V  2   9102.637645 -25249.095115 -11371.415904     -0.040996                    
P  3  15512.229472 -12894.775061 -17305.236809    -65.837296                    
V  3  21896.584655    247.342907  19633.010850     -0.099261                    
P  4   7316.781587 -15320.427206 -20407.801010   -175.518366                    
V  4  14502.012945  21530.069796 -11011.307092     -0.028545                    
P  5 -26457.577698   3161.888220    793.545012    -31.957089                    
V  5  -1454.904508  -2706.799421 -31493.089465     -0.009928                    
P  6 -10231.102013 -11646.834802 -21494.520473     -4.229131                    
V  6  12640.602791 -24306.187814   7178.889987      0.005350                    
P  7   4166.760285 -24087.395420  10083.150548     35.241128                    
V  7   8386.123830  -9770.683944 -28200.967284      0.140220                    
P  8  12652.951863  -8167.457391  21888.245771     -7.938844                    
V  8  15832.245861  22787.485145   -361.310322     -0.013702                    
P  9  -3714.329276 -22493.561186 -13669.891477   -316.529145                    
V  9  11768.751553  12876.501495 -24519.368705     -0.038596                    
P 10  14597.521304  12034.441954  18854.650742    -47.285420                    
V 10 -23481.403293   2699.128559  16288.570234     -0.083648                    
P 11  11787.255964 -17617.729973  15767.840787    -42.826061                    
V 11   3151.895718  20791.595070  19932.294370      0.105929                    
P 12 -19461.833240  10090.547903 -15127.291072      7.907190                    
V 12 -18794.622002  -1893.092947  23443.437461     -0.052494                    
P 13 -16953.691743  -3109.948774  20104.814119     89.927749                    
V 13 -10499.598923 -23561.717057 -12296.402060      0.042123                    
P 14 -12143.978119 -13424.955043  19429.972410     90.560040                    
V 14  24667.217891  -1715.106466  14218.551263      0.047388                    
P 15 -11817.091202  10387.979247  21038.077767   -173.838515                    
V 15 -17997.261599 -21036.138953    631.243874      0.025796                    
P 16  26802.688166    863.229452   -215.538098   -270.461466                    
V 16    -39.848026   1954.031224 -31770.918193     -0.055961                    
P 17 -14211.433369 -22355.368981  -1528.271504    384.863573                    
V 17    596.314934  -3201.708631  32158.203567      0.048326                    
P 18  -2832.178354  23429.243166  12126.488379    343.711360                    
V 18  -9141.938071  12611.894794 -26547.672393      0.023973                    
P 19 -16981.599922 -18035.735135  -9979.844886    -47.086690                    
V 19  -4068.652288 -11650.960063  28707.780535      0.050214                    
P 20   1908.187038  15612.873698  21333.827743    524.996607                    
V 20 -26822.802154   5249.360643  -1707.025567     -0.001796                    
P 21  16684.670464 -16217.650912  13146.634965     89.994807                    
V 21  -3649.917981  15461.254737  25537.398866      0.033250                    
P 22  22049.278637 -10793.913820  -9724.794998   -691.617615                    
V 22  13115.986269   1400.177144  27792.052828      0.069696                    
P 23   2626.875763  14957.312687  21766.868279    117.282806                    
V 23 -27569.200955   2562.674378   1528.342649      0.010515                    
P 24 -15275.142167  19377.646374   9052.286961      3.182968                    
V 24   1218.980827 -12478.588980  28425.721950     -0.005392                    
P 25  -5211.174800  15217.967609 -21342.795994     67.259394                    
V 25 -26550.780825    961.460795   7527.885560      0.077826                    
P 26  23763.320784   5462.991314 -10894.053988     35.359827                    
V 26 -13351.097301   4092.423145 -26927.384994      0.056182                    
P 27  18514.837182   5622.851055  18201.158704    -63.409306                    
V 27  11948.882292  19979.594754 -17821.849350     -0.076209                    
P 28 -14673.308444 -12954.799634  18430.281042    624.687209                    
V 28  22326.014242   -608.813902  18083.967464     -0.052053                    
P 29   1736.455622  22319.231218 -14299.824592   -282.728046                    
V 29 -10285.149427 -14932.879228 -24659.495722     -0.071717                    
P 30  -4927.411895 -18875.675560  17972.656855   -374.696464                    
V 30  12558.392931 -19247.165121 -17033.955568     -0.059513                    
P 31  12522.687759   9034.442641 -21659.442195    -96.126115                    
V 31 -13190.153299  23987.646249   2848.050634     -0.023147                    
P 32  16307.402284  20911.726034  -2561.115204     16.094575                    
V 32   -431.684691   4335.722193  31343.320872      0.017661                    
EOF
